MONITOR-3 (RS58S)       
1 57180U 23091Q   26170.55605083  .00008359  00000+0  30911-3 0  9995
2 57180  97.5078 234.0197 0013064  93.5503 266.7230 15.27881136164654
MONITOR-4 (RS57S)       
1 57182U 23091S   26170.53497600  .00008828  00000+0  32545-3 0  9995
2 57182  97.5073 233.9698 0013062  93.9516 266.3217 15.27966698164659
MONITOR-2 (RS39S)       
1 57184U 23091U   26170.55255114  .00003756  00000+0  18285-3 0  9991
2 57184  97.5068 228.8204 0012770 103.9924 256.2731 15.18928724164311
SVYATOBOR 1 (RS60S)     
1 57187U 23091X   26170.55008771  .00007077  00000+0  27232-3 0  9991
2 57187  97.5084 234.3804 0010835  87.4908 272.7571 15.26648262164677
HORS 1                  
1 57188U 23091Y   26170.53546222  .00007394  00000+0  28352-3 0  9994
2 57188  97.5062 234.1277 0010290  87.4076 272.8340 15.26755485164678
VIZARD-METEO (RS38S)    
1 57189U 23091Z   26170.55794004  .00013698  00000+0  39140-3 0  9991
2 57189  97.5087 240.0907 0008118  70.6523 289.5598 15.36088134165053
SITRO-AIS 6 (CHIRKIN)   
1 57192U 23091AC  26170.54051036  .00007800  00000+0  30576-3 0  9997
2 57192  97.5062 233.5691 0013095  99.2926 260.9794 15.25970680164640
SITRO-AIS 8 (ANOKHIN)   
1 57193U 23091AD  26170.56897241  .00011798  00000+0  38120-3 0  9990
2 57193  97.5051 236.0896 0011740  92.7843 267.4742 15.32190853164813
SITRO-AIS 7 (FARTUSHNIY)
1 57194U 23091AE  26170.47855265  .00007376  00000+0  29202-3 0  9999
2 57194  97.5059 233.3307 0012957 100.4109 259.8590 15.25656984164621
AVION KALUGA 650        
1 57195U 23091AF  26170.59737414  .00004532  00000+0  21100-3 0  9998
2 57195  97.5085 230.1642 0011927 102.1133 258.1439 15.20373529164394
HORS 2                  
1 57196U 23091AG  26170.58104574  .00010334  00000+0  33714-3 0  9994
2 57196  97.5083 237.6434 0009229  80.8050 279.4235 15.31941645164893
A-SEANSAT-PG1           
1 57197U 23091AH  26170.55025191  .00014531  00000+0  40273-3 0  9990
2 57197  97.5075 240.1822 0008150  78.1681 282.0477 15.37026449165078
SITRO-AIS 10 (BURDAEV)  
1 57199U 23091AK  26170.46042009  .00016845  00000+0  44216-3 0  9990
2 57199  97.5075 241.0571 0007352  73.4214 286.7838 15.38684557165112
SITRO-AIS 9 (SHCHUKIN)  
1 57201U 23091AM  26170.55260098  .00015900  00000+0  42420-3 0  9990
2 57201  97.5074 240.8798 0007610  73.4458 286.7623 15.38192058165112
UTMN 2 (RS27S)          
1 57203U 23091AP  26170.54270438  .00010330  00000+0  33537-3 0  9991
2 57203  97.5083 237.7966 0009146  76.7848 283.4414 15.32099362164907
SITRO-AIS 12 (SMIRENNIY)
1 57204U 23091AQ  26170.54277199  .00016340  00000+0  43179-3 0  9993
2 57204  97.5087 241.3383 0007116  68.4056 291.7947 15.38485681165138
SITRO-AIS 11 (SHEFFER)  
1 57208U 23091AU  26170.55553599  .00016755  00000+0  43659-3 0  9992
2 57208  97.5085 241.5995 0007008  68.2793 291.9198 15.38912254165150
H2SAT (HEINRICH HERTZ)  
1 57213U 23093A   26169.60986911 -.00000004  00000+0  00000+0 0  9992
2 57213   0.0587 104.5799 0000842  91.9025 290.6226  1.00270922 10938
KUZGTU 1 (RS47S)        
1 57217U 23091AV  26170.58496566  .00009280  00000+0  32240-3 0  9994
2 57217  97.5059 235.0894 0012259  90.6815 269.5830 15.29905552164746
QIANKUN-1               
1 57422U 23103B   26166.36556735  .00020233  18381-5  23233-4 0  9993
2 57422  96.1468 211.3446 0029378 145.9035 214.4147 16.08420909167009
FENGYUN 3F              
1 57490U 23111A   26170.65189909  .00000045  00000+0  41540-4 0  9992
2 57490  98.6835 240.6147 0001588  91.5910 268.5449 14.19939531149217
HJ-2F                   
1 57519U 23116A   26170.61876486  .00006453  00000+0  28241-3 0  9999
2 57519  97.3845 175.7950 0009617  44.9469 315.2544 15.22349182159127
XRISM                   
1 57800U 23137A   26170.56645988  .00004004  00000+0  21890-3 0  9993
2 57800  31.0032 344.1895 0007934 347.4528  12.5912 15.12484218153220
METEOR-M2 4             
1 59051U 24039A   26170.64540469  .00000002  00000+0  20611-4 0  9997
2 59051  98.7011 129.9125 0007422 154.1905 205.9644 14.22429736119615
GRBBETA                 
1 60237U 24128C   26170.54292137  .00002191  00000+0  15906-3 0  9990
2 60237  61.9881 208.0011 0040352 135.1213 225.3155 15.06650427106629
TRANSPORTER-11 OBJECT A 
1 60468U 24149A   26170.50347647  .00007358  00000+0  23372-3 0  9998
2 60468  97.3726 250.4261 0003062 184.9198 175.2015 15.32937686102410
WARATAH SEED-1          
1 60469U 24149B   26170.19582607  .00011043  00000+0  31735-3 0  9999
2 60469  97.3687 250.7722 0001649 172.0188 188.1082 15.35988179102422
PHISAT 2                
1 60470U 24149C   26170.46545577  .00005716  00000+0  19288-3 0  9995
2 60470  97.3754 249.6692 0001314 168.9110 191.2161 15.31089870102340
LEMUR-2-TOMATOKECHUP    
1 60471U 24149D   26170.19195108  .00009349  00000+0  26838-3 0  9992
2 60471  97.3797 252.2439 0001643 171.4844 188.6428 15.36068984102473
